[{"OBJECT_NAME":"IRIDIUM 33 DEB","OBJECT_ID":"1997-051AAB","EPOCH":"2026-04-26T06:59:21.493536","MEAN_MOTION":14.51375977,"ECCENTRICITY":0.0025242,"INCLINATION":86.3404,"RA_OF_ASC_NODE":311.4127,"ARG_OF_PERICENTER":2.0746,"MEAN_ANOMALY":358.056,"EPHEMERIS_TYPE":0,"CLASSIFICATION_TYPE":"U","NORAD_CAT_ID":38474,"ELEMENT_SET_NO":999,"REV_AT_EPOCH":67269,"BSTAR":0.00038760137,"MEAN_MOTION_DOT":1.571e-5,"MEAN_MOTION_DDOT":0},{"OBJECT_NAME":"IRIDIUM 33 DEB","OBJECT_ID":"1997-051AAJ","EPOCH":"2026-04-26T10:27:24.182784","MEAN_MOTION":14.60035865,"ECCENTRICITY":0.00615666,"INCLINATION":85.9572,"RA_OF_ASC_NODE":109.4709,"ARG_OF_PERICENTER":91.4301,"MEAN_ANOMALY":269.3962,"EPHEMERIS_TYPE":0,"CLASSIFICATION_TYPE":"U","NORAD_CAT_ID":39777,"ELEMENT_SET_NO":999,"REV_AT_EPOCH":62148,"BSTAR":0.0034738306,"MEAN_MOTION_DOT":0.00017176,"MEAN_MOTION_DDOT":0},{"OBJECT_NAME":"IRIDIUM 33 DEB","OBJECT_ID":"1997-051AAK","EPOCH":"2026-04-26T08:57:56.985408","MEAN_MOTION":14.55450229,"ECCENTRICITY":0.00053225,"INCLINATION":86.3798,"RA_OF_ASC_NODE":344.7435,"ARG_OF_PERICENTER":306.7798,"MEAN_ANOMALY":53.292,"EPHEMERIS_TYPE":0,"CLASSIFICATION_TYPE":"U","NORAD_CAT_ID":39778,"ELEMENT_SET_NO":999,"REV_AT_EPOCH":62650,"BSTAR":0.00080930667,"MEAN_MOTION_DOT":3.538e-5,"MEAN_MOTION_DDOT":0},{"OBJECT_NAME":"IRIDIUM 33 DEB","OBJECT_ID":"1997-051AAN","EPOCH":"2026-04-25T11:37:59.256768","MEAN_MOTION":14.24075367,"ECCENTRICITY":0.01757999,"INCLINATION":86.3746,"RA_OF_ASC_NODE":202.7651,"ARG_OF_PERICENTER":202.3236,"MEAN_ANOMALY":172.8803,"EPHEMERIS_TYPE":0,"CLASSIFICATION_TYPE":"U","NORAD_CAT_ID":39781,"ELEMENT_SET_NO":999,"REV_AT_EPOCH":10008,"BSTAR":0.0051086797,"MEAN_MOTION_DOT":0.00013815,"MEAN_MOTION_DDOT":0},{"OBJECT_NAME":"IRIDIUM 33 DEB","OBJECT_ID":"1997-051ABJ","EPOCH":"2026-04-26T06:41:16.179936","MEAN_MOTION":15.08227115,"ECCENTRICITY":0.00043606,"INCLINATION":86.3434,"RA_OF_ASC_NODE":297.9132,"ARG_OF_PERICENTER":263.8856,"MEAN_ANOMALY":218.5131,"EPHEMERIS_TYPE":0,"CLASSIFICATION_TYPE":"U","NORAD_CAT_ID":40996,"ELEMENT_SET_NO":999,"REV_AT_EPOCH":64508,"BSTAR":0.003397599,"MEAN_MOTION_DOT":0.00052923,"MEAN_MOTION_DDOT":0},{"OBJECT_NAME":"IRIDIUM 33 DEB","OBJECT_ID":"1997-051ABL","EPOCH":"2026-04-26T10:45:30.255840","MEAN_MOTION":14.45620718,"ECCENTRICITY":0.00081396,"INCLINATION":86.3862,"RA_OF_ASC_NODE":356.1038,"ARG_OF_PERICENTER":9.5913,"MEAN_ANOMALY":110.2584,"EPHEMERIS_TYPE":0,"CLASSIFICATION_TYPE":"U","NORAD_CAT_ID":40998,"ELEMENT_SET_NO":999,"REV_AT_EPOCH":8627,"BSTAR":0.00036482568,"MEAN_MOTION_DOT":1.309e-5,"MEAN_MOTION_DDOT":0},{"OBJECT_NAME":"IRIDIUM 33 DEB","OBJECT_ID":"1997-051ABN","EPOCH":"2026-04-25T19:27:35.189280","MEAN_MOTION":14.38526762,"ECCENTRICITY":0.0197762,"INCLINATION":86.2788,"RA_OF_ASC_NODE":135.8997,"ARG_OF_PERICENTER":193.5928,"MEAN_ANOMALY":345.1445,"EPHEMERIS_TYPE":0,"CLASSIFICATION_TYPE":"U","NORAD_CAT_ID":46435,"ELEMENT_SET_NO":999,"REV_AT_EPOCH":9840,"BSTAR":0.0021222434,"MEAN_MOTION_DOT":8.173e-5,"MEAN_MOTION_DDOT":0},{"OBJECT_NAME":"IRIDIUM 33 DEB","OBJECT_ID":"1997-051ABR","EPOCH":"2026-04-19T07:18:25.884864","MEAN_MOTION":14.42791376,"ECCENTRICITY":0.00376703,"INCLINATION":86.2589,"RA_OF_ASC_NODE":306.8288,"ARG_OF_PERICENTER":271.8827,"MEAN_ANOMALY":269.0255,"EPHEMERIS_TYPE":0,"CLASSIFICATION_TYPE":"U","NORAD_CAT_ID":46734,"ELEMENT_SET_NO":999,"REV_AT_EPOCH":64849,"BSTAR":0.00056413179,"MEAN_MOTION_DOT":1.915e-5,"MEAN_MOTION_DDOT":0},{"OBJECT_NAME":"IRIDIUM 33 DEB","OBJECT_ID":"1997-051ABX","EPOCH":"2026-04-26T05:26:31.961184","MEAN_MOTION":14.6132692,"ECCENTRICITY":0.00176842,"INCLINATION":86.3315,"RA_OF_ASC_NODE":280.9928,"ARG_OF_PERICENTER":223.5525,"MEAN_ANOMALY":315.9887,"EPHEMERIS_TYPE":0,"CLASSIFICATION_TYPE":"U","NORAD_CAT_ID":46965,"ELEMENT_SET_NO":999,"REV_AT_EPOCH":64231,"BSTAR":0.00074819796,"MEAN_MOTION_DOT":3.724e-5,"MEAN_MOTION_DDOT":0},{"OBJECT_NAME":"IRIDIUM 33 DEB","OBJECT_ID":"1997-051ACD","EPOCH":"2026-04-26T04:00:23.234976","MEAN_MOTION":15.07424987,"ECCENTRICITY":0.00070677,"INCLINATION":86.3145,"RA_OF_ASC_NODE":269.2889,"ARG_OF_PERICENTER":181.1926,"MEAN_ANOMALY":306.0754,"EPHEMERIS_TYPE":0,"CLASSIFICATION_TYPE":"U","NORAD_CAT_ID":46971,"ELEMENT_SET_NO":999,"REV_AT_EPOCH":66249,"BSTAR":0.0031213405,"MEAN_MOTION_DOT":0.00047558,"MEAN_MOTION_DDOT":0},{"OBJECT_NAME":"IRIDIUM 33 DEB","OBJECT_ID":"1997-051ACE","EPOCH":"2026-04-11T10:21:22.178016","MEAN_MOTION":14.5129921,"ECCENTRICITY":0.00118657,"INCLINATION":86.391,"RA_OF_ASC_NODE":347.8745,"ARG_OF_PERICENTER":68.0639,"MEAN_ANOMALY":58.2244,"EPHEMERIS_TYPE":0,"CLASSIFICATION_TYPE":"U","NORAD_CAT_ID":46972,"ELEMENT_SET_NO":999,"REV_AT_EPOCH":63308,"BSTAR":0.00032217764,"MEAN_MOTION_DOT":1.303e-5,"MEAN_MOTION_DDOT":0},{"OBJECT_NAME":"IRIDIUM 33 DEB","OBJECT_ID":"1997-051ACG","EPOCH":"2026-04-26T12:25:06.981888","MEAN_MOTION":14.47424263,"ECCENTRICITY":0.0092072,"INCLINATION":86.2986,"RA_OF_ASC_NODE":46.2556,"ARG_OF_PERICENTER":97.0452,"MEAN_ANOMALY":264.1233,"EPHEMERIS_TYPE":0,"CLASSIFICATION_TYPE":"U","NORAD_CAT_ID":46974,"ELEMENT_SET_NO":999,"REV_AT_EPOCH":59456,"BSTAR":0.0032725711,"MEAN_MOTION_DOT":0.00012694,"MEAN_MOTION_DDOT":0}]
